satname,norad_id,inclination_deg,eccentricity,mean_motion_rev_per_day,perigee_km,apogee_km,l1,l2
STARLINK-1458,45675,53.0523,0.0006417,15.42605951,434.04742166246524,442.79579297910095,1 45675U 20035U   26064.40294173  .00081696  00000+0  18380-2 0  9996,2 45675  53.0523  75.8497 0006417  62.9799 297.1860 15.42605951318190
STARLINK-1460,45676,53.1407,8.28e-05,15.2614311,486.786574307358,487.92349978869333,1 45676U 20035V   26064.91668981  .00881648  00000+0  31308-1 0  9994,2 45676  53.1407  82.3815 0000828 115.1287 158.2860 15.26143110  5773
STARLINK-1392,45677,53.1552,0.0001315,15.29311351,476.96813502306395,478.77126478513856,1 45677U 20035W   26064.91668981  .00067438  00000+0  23314-2 0  9997,2 45677  53.1552  82.2670 0001315  96.0465 179.9752 15.29311351  5777
STARLINK-1394,45679,53.0506,0.0002472,15.48970276,418.0566925479561,421.41756151636037,1 45679U 20035Y   26064.35962075  .00085083  00000+0  15392-2 0  9991,2 45679  53.0506  57.3208 0002472 107.2904 252.8374 15.48970276318489
STARLINK-1402,45685,53.0496,4.48e-05,15.44048047,433.8714429688089,434.48182627046936,1 45685U 20035AE  26064.64273081  .00083039  00000+0  17803-2 0  9990,2 45685  53.0496  42.6524 0000448 216.4039 143.6936 15.44048047318721
STARLINK-1404,45686,53.1612,0.0001413,15.30201477,474.24228134283385,476.17903739137,1 45686U 20035AF  26064.45040925  .00000653  00000+0  34180-4 0  9999,2 45686  53.1612  69.3899 0001413  99.0956 261.0205 15.30201477318323
STARLINK-1413,45689,53.1614,0.0001419,15.30205226,474.2269771252613,476.1719540141912,1 45689U 20035AJ  26064.26076151  .00000293  00000+0  22015-4 0  9995,2 45689  53.1614  70.1495 0001419  96.2525 263.8638 15.30205226318211
STARLINK-1417,45693,53.0508,0.0002264,15.12220942,527.8645876513483,530.9923332918497,1 45693U 20035AN  26064.43470306  .00032752  00000+0  18826-2 0  9997,2 45693  53.0508  73.5902 0002264 219.7409 140.3417 15.12220942318259
STARLINK-1420,45695,53.0543,0.0003748,15.52583858,406.6412743051005,411.729050998224,1 45695U 20035AQ  26064.23784419  .00108418  00000+0  17179-2 0  9993,2 45695  53.0543  43.8775 0003748  82.4885 277.6550 15.52583858318668
STARLINK-1422,45696,53.161,0.0001313,15.30188334,474.35005251355324,476.14975191407484,1 45696U 20035AR  26064.79066961 -.00000610  00000+0 -84593-5 0  9994,2 45696  53.1610  67.6923 0001313  96.6577 263.4574 15.30188334318378
STARLINK-1351,45697,53.0535,0.0002974,15.51344592,410.77968390817205,414.81893282438887,1 45697U 20035AS  26064.21103615  .00127445  00000+0  21048-2 0  9997,2 45697  53.0535  43.1767 0002974 100.0444 260.0900 15.51344592318678
STARLINK-1398,45699,53.0364,0.0003846,15.92659205,292.27832456131546,297.4111821259876,1 45699U 20035AU  26064.91668981  .00251926  35098-4  72518-3 0  9999,2 45699  53.0364 318.5285 0003846 156.0121  54.3189 15.92659205  5992
STARLINK-1400,45700,53.0515,0.0007698,15.49658904,412.4916594262195,422.9545656554874,1 45700U 20035AV  26064.81956723  .00121068  00000+0  21228-2 0  9999,2 45700  53.0515  41.5318 0007698  77.3187 282.8681 15.49658904318741
STARLINK-1403,45701,53.0786,0.0001967,15.12134584,528.332682135635,531.050221848649,1 45701U 20035AW  26064.91668981  .01522309  00000+0  79414-1 0  9990,2 45701  53.0786  53.4958 0001967 102.8729  60.0817 15.12134584  5533
STARLINK-1407,45703,53.0361,0.0011743,15.58605229,383.7430686782027,399.6426911341496,1 45703U 20035AY  26064.14797352  .00134743  00000+0  16988-2 0  9990,2 45703  53.0361 337.8711 0011743  86.1713 274.0641 15.58605229319584
STARLINK-1411,45706,53.0469,0.0005411,15.61061569,380.9301255710543,388.24874812100825,1 45706U 20035BB  26064.21342970  .00107478  00000+0  12423-2 0  9998,2 45706  53.0469   3.2926 0005411 111.3981 248.7609 15.61061569319221
STARLINK-1423,45710,53.052,0.0007338,15.5193722,406.0884713186251,416.0523120866874,1 45710U 20035BF  26064.91668981  .00145947  00000+0  23514-2 0  9999,2 45710  53.0520  40.1817 0007338  92.1462 238.0048 15.51937220  5960
STARLINK-1433,45711,53.0509,0.0007244,15.54012593,400.11069720533305,409.93814146966906,1 45711U 20035BG  26064.91668981  .00140583  00000+0  21032-2 0  9994,2 45711  53.0509  39.2795 0007244  86.1148  77.9812 15.54012593  5961
STARLINK-1434,45712,53.0574,0.0005223,15.26190824,483.6261718760379,490.7977153825532,1 45712U 20035BH  26064.31292693  .00059174  00000+0  22526-2 0  9996,2 45712  53.0574  40.3016 0005223  68.9244 291.2312 15.26190824318723
STARLINK-1465,45731,53.0523,0.0002926,15.49206734,417.05653997761783,421.0342511154922,1 45731U 20038B   26064.71072750  .00119274  00000+0  21273-2 0  9990,2 45731  53.0523 242.2412 0002926 227.4174 132.6587 15.49206734315768
STARLINK-1471,45735,53.047,0.0001099,15.4863225,419.9790949697399,421.4734851208923,1 45735U 20038F   26064.58090050  .00029934  00000+0  55717-3 0  9996,2 45735  53.0470 161.7054 0001099 213.1294 146.9645 15.48632250316898
STARLINK-1480,45741,53.0514,0.0007424,15.47322405,419.5123570126425,429.61300549937096,1 45741U 20038M   26064.72639027  .00078440  00000+0  15035-2 0  9996,2 45741  53.0514 236.1997 0007424 164.4132 195.7105 15.47322405315860
STARLINK-1500,45744,53.0367,0.0002073,15.34524749,460.91445568421295,463.750514332698,1 45744U 20038Q   26064.83537750  .00032814  00000+0  97412-3 0  9996,2 45744  53.0367 210.8283 0002073 223.1216 136.9623 15.34524749316221
STARLINK-1504,45746,53.0233,0.0001095,15.52850593,407.6647694458652,409.15102277811366,1 45746U 20038S   26064.56805177  .00036989  00000+0  59073-3 0  9997,2 45746  53.0233 162.0666 0001095 173.0188 187.0836 15.52850593316875
STARLINK-1506,45747,53.0747,0.0002664,15.25901159,486.25159807232467,489.9099188940454,1 45747U 20038T   26064.59976566  .00019136  00000+0  74796-3 0  9996,2 45747  53.0747 221.2813 0002664 205.9252 154.1612 15.25901159316061
STARLINK-1464,45751,53.0519,0.0002222,15.43388301,434.6037238117806,437.6319786676713,1 45751U 20038X   26064.81234485  .00090072  00000+0  19719-2 0  9994,2 45751  53.0519 223.0553 0002222 215.3375 144.7483 15.43388301316053
STARLINK-1477,45754,53.0502,8.85e-05,15.14119256,523.0429110269579,524.26452798431,1 45754U 20038AA  26064.67300929  .00034381  00000+0  18730-2 0  9991,2 45754  53.0502 231.2153 0000885  57.9316 302.1762 15.14119256315927
STARLINK-1478,45755,53.051,0.0003905,15.54145932,401.98776348538377,407.2851095392998,1 45755U 20038AB  26064.91668981  .00145140  00000+0  21608-2 0  9998,2 45755  53.0510 216.1200 0003905 212.3389 215.3897 15.54145932  5907
STARLINK-1484,45756,52.9982,0.0006502,15.99582604,271.2496879822447,279.9021762791881,1 45756U 20038AC  26064.91668981  .00508835  12310-3  99615-3 0  9998,2 45756  52.9982  76.1184 0006502  49.0266  42.6988 15.99582604  5956
STARLINK-1493,45759,53.0536,0.0001346,15.49421018,417.5038671989705,419.333499988993,1 45759U 20038AF  26064.83853969  .00093255  00000+0  16581-2 0  9998,2 45759  53.0536 222.9736 0001346  65.9454 294.1695 15.49421018316047
STARLINK-1494,45760,53.0485,0.0004755,15.72908554,347.38971819887774,353.7887368412494,1 45760U 20038AG  26064.91668981  .00063137  00000+0  45623-3 0  9993,2 45760  53.0485 170.3684 0004755 349.0675 239.8735 15.72908554  5809
STARLINK-1502,45764,53.0532,0.0001867,15.46358509,426.1186931844968,428.6598766992938,1 45764U 20038AL  26064.80966491  .00092818  00000+0  18359-2 0  9995,2 45764  53.0532 224.5689 0001867  26.6112 333.4990 15.46358509316032
STARLINK-1470,45772,53.0497,7e-05,15.2760559,482.4921937803747,483.45274910637727,1 45772U 20038AU  26064.61863484  .00055941  00000+0  20425-2 0  9994,2 45772  53.0497 193.2126 0000700   7.6660 352.4348 15.27605590316459
STARLINK-1482,45773,53.1607,0.0001469,15.30190324,474.2371987003762,476.25072202653064,1 45773U 20038AV  26064.56616409 -.00000973  00000+0 -20726-4 0  9995,2 45773  53.1607 210.1718 0001469  99.1450 260.9717 15.30190324316211
STARLINK-1496,45780,53.0519,0.0003493,15.4737469,422.03331109081864,426.785570034197,1 45780U 20038BC  26064.91668981  .00108464  00000+0  20656-2 0  9996,2 45780  53.0519 195.8673 0003493 203.1946 267.6250 15.47374690  5955
STARLINK-1513,45786,53.1627,0.0001334,15.30194444,474.3174193049754,476.1458980631114,1 45786U 20038BJ  26064.77161333 -.00000064  00000+0  99797-5 0  9998,2 45786  53.1627 209.3492 0001334  90.2972 269.8182 15.30194444316242
STARLINK-1522,46027,53.0638,0.0001575,15.09004376,538.1515158651036,540.3304899360173,1 46027U 20055A   26064.91668981 -.00013046  00000+0 -79931-3 0  9994,2 46027  53.0638 143.4836 0001575  65.4058 349.9816 15.09004376  5797
STARLINK-1523,46028,53.0844,2.9e-05,15.14081443,523.5684749813236,523.9687855078773,1 46028U 20055B   26064.91668981  .00045576  00000+0  24764-2 0  9999,2 46028  53.0844 143.4132 0000290  58.3119 316.2116 15.14081443  5840
STARLINK-1526,46029,53.0863,0.0001273,15.14480199,521.6786243790884,523.4355410925536,1 46029U 20055C   26064.91668981  .00047660  00000+0  25593-2 0  9997,2 46029  53.0863 143.3900 0001273  50.6525  16.5629 15.14480199  5842
STARLINK-1555,46032,53.0817,0.0001894,15.13409108,524.5049943854128,527.1202104948179,1 46032U 20055F   26064.91668981  .00048742  00000+0  26964-2 0  9996,2 46032  53.0817 143.4515 0001894  59.3359  54.8240 15.13409108  5640
STARLINK-1556,46033,53.0853,0.000171,15.14461742,521.4331209594638,523.7931775105017,1 46033U 20055G   26064.91668981  .00046828  00000+0  25165-2 0  9992,2 46033  53.0853 143.4099 0001710  98.3854 138.0349 15.14461742  5848
STARLINK-1557,46034,53.0897,0.0001631,15.15362053,518.7545504470336,521.004683467484,1 46034U 20055H   26064.91668981  .00048984  00000+0  25648-2 0  9994,2 46034  53.0897 143.3675 0001631  94.4107 145.6617 15.15362053  5844
STARLINK-1558,46035,53.0801,0.0001259,15.12690845,527.1283910824168,528.8673558435548,1 46035U 20055J   26064.91668981  .00730756  00000+0  38335-1 0  9996,2 46035  53.0801 143.4676 0001259  84.5799  60.2012 15.12690845  5734
